NORAD_CAT_ID,OBJECT_NAME,OBJECT_TYPE,EPOCH,MEAN_MOTION,ECCENTRICITY,INCLINATION,RA_OF_ASC_NODE,ARG_OF_PERICENTER,MEAN_ANOMALY,BSTAR,MEAN_MOTION_DOT,MEAN_MOTION_DDOT,TLE_LINE0,TLE_LINE1,TLE_LINE2,SEMIMAJOR_AXIS,PERIOD,APOGEE,PERIGEE,DECAYED
51719.0,STARLINK-3540,PAYLOAD,2022-10-25 11:04:51,15.08833731,0.0001579,53.2168,96.3269,58.9575,301.1572,-6.9408e-05,-1.392e-05,0.0,0 STARLINK-3540,1 51719U 22016F   22298.46170846 -.00001392  00000-0 -69408-4 0  9991,2 51719  53.2168  96.3269 0001579  58.9575 301.1572 15.08833731 37554,6917.9,95.438,540.857,538.672,0.0
51719.0,STARLINK-3540,PAYLOAD,2022-10-25 17:26:24,15.08837803,0.0001662,53.217,95.1381,53.6834,306.4311,-5.7855e-05,-1.209e-05,0.0,0 STARLINK-3540,1 51719U 22016F   22298.72666670 -.00001209  00000-0 -57855-4 0  9995,2 51719  53.2170  95.1381 0001662  53.6834 306.4311 15.08837803 38657,6917.887,95.438,540.9019999999998,538.602,0.0
51719.0,STARLINK-3540,PAYLOAD,2022-10-26 12:31:01,15.08835421,0.0001601,53.2166,91.5687,50.1418,309.9715,9.1091e-05,1.162e-05,0.0,0 STARLINK-3540,1 51719U 22016F   22299.52154498  .00001162  00000-0  91091-4 0  9990,2 51719  53.2166  91.5687 0001601  50.1418 309.9715 15.08835421 37710,6917.894,95.438,540.867,538.6519999999998,0.0
51719.0,STARLINK-3540,PAYLOAD,2022-10-26 18:52:33,15.08836974,0.0001654,53.2171,90.3801,53.6593,306.4552,0.00015586,2.193e-05,0.0,0 STARLINK-3540,1 51719U 22016F   22299.78650294  .00002193  00000-0  15586-3 0  9992,2 51719  53.2171  90.3801 0001654  53.6593 306.4552 15.08836974 38818,6917.89,95.438,540.899,538.61,0.0
51719.0,STARLINK-3540,PAYLOAD,2022-10-27 02:49:29,15.08840689,0.0001668,53.2171,88.8933,53.753,306.3616,0.00016001,2.259e-05,0.0,0 STARLINK-3540,1 51719U 22016F   22300.11770123  .00002259  00000-0  16001-3 0  9992,2 51719  53.2171  88.8933 0001668  53.7530 306.3616 15.08840689 37809,6917.878000000002,95.438,540.8969999999998,538.589,0.0
51719.0,STARLINK-3540,PAYLOAD,2022-10-27 18:43:21,15.08839624,0.0001714,53.2178,85.9204,57.1587,302.957,6.777399999999999e-05,7.91e-06,0.0,0 STARLINK-3540,1 51719U 22016F   22300.78010578  .00000791  00000-0  67774-4 0  9999,2 51719  53.2178  85.9204 0001714  57.1587 302.9570 15.08839624 37906,6917.882,95.438,540.932,538.561,0.0
51719.0,STARLINK-3540,PAYLOAD,2022-10-28 13:47:58,15.0884657,0.0001696999999999,53.2183,82.3523,61.5607,298.5556,2.572e-05,1.21e-06,0.0,0 STARLINK-3540,1 51719U 22016F   22301.57498082  .00000121  00000-0  25720-4 0  9999,2 51719  53.2183  82.3523 0001697  61.5607 298.5556 15.08846570 38025,6917.86,95.437,540.899,538.5509999999998,0.0
51719.0,STARLINK-3540,PAYLOAD,2022-10-28 18:34:07,15.08846289,0.000171,53.2183,81.4602,60.8415,299.2749,3.8317e-05,3.22e-06,0.0,0 STARLINK-3540,1 51719U 22016F   22301.77369990  .00000322  00000-0  38317-4 0  9995,2 51719  53.2183  81.4602 0001710  60.8415 299.2749 15.08846289 39118,6917.861,95.437,540.909,538.543,0.0
51719.0,STARLINK-3540,PAYLOAD,2022-10-29 15:14:08,15.08845422,0.0001692,53.218,77.5939,56.7556,303.3599,7.0725e-05,8.38e-06,0.0,0 STARLINK-3540,1 51719U 22016F   22302.63481528  .00000838  00000-0  70725-4 0  9994,2 51719  53.2180  77.5939 0001692  56.7556 303.3599 15.08845422 38187,6917.864000000001,95.437,540.899,538.558,0.0
51719.0,STARLINK-3540,PAYLOAD,2022-10-30 02:21:49,15.08853063,0.0001757,53.2179,75.512,53.3371,306.7782,8.6234e-05,1.085e-05,0.0,0 STARLINK-3540,1 51719U 22016F   22303.09848783  .00001085  00000-0  86234-4 0  9992,2 51719  53.2179  75.5120 0001757  53.3371 306.7782 15.08853063 38254,6917.84,95.437,540.9209999999998,538.49,0.0
51719.0,STARLINK-3540,PAYLOAD,2022-10-30 15:04:55,15.08840936,0.000193,53.2185,73.1338,59.9443,300.1740000000001,1.4234e-05,-6.2e-07,0.0,0 STARLINK-3540,1 51719U 22016F   22303.62841614 -.00000062  00000-0  14234-4 0  9993,2 51719  53.2185  73.1338 0001930  59.9443 300.1740 15.08840936 38337,6917.878000000002,95.437,541.078,538.4069999999998,0.0
51719.0,STARLINK-3540,PAYLOAD,2022-10-31 08:34:09,15.08921045,0.0001262,53.22,69.862,60.5053,299.6065,-0.00092955,-0.00015084,0.0,0 STARLINK-3540,1 51719U 22016F   22304.35705334 -.00015084  00000-0 -92955-3 0  9998,2 51719  53.2200  69.8620 0001262  60.5053 299.6065 15.08921045 38449,6917.6330000000025,95.432,540.371,538.625,0.0
51719.0,STARLINK-3540,PAYLOAD,2022-10-31 14:55:42,15.08838418,0.0001738,53.223,68.6742,49.5939,310.5205,-2.2854e-06,-3.24e-06,0.0,0 STARLINK-3540,1 51719U 22016F   22304.62201708 -.00000324  00000-0 -22854-5 0  9998,2 51719  53.2230  68.6742 0001738  49.5939 310.5205 15.08838418 38486,6917.885,95.438,540.953,538.548,0.0
51719.0,STARLINK-3540,PAYLOAD,2022-11-01 08:24:56,15.08833025,0.0001327,53.2239,65.4037,27.1775,332.9287,9.3314e-05,1.197e-05,0.0,0 STARLINK-3540,1 51719U 22016F   22305.35065631  .00001197  00000-0  93314-4 0  9997,2 51719  53.2239  65.4037 0001327  27.1775 332.9287 15.08833025 38590,6917.901999999999,95.438,540.685,538.849,0.0
51719.0,STARLINK-3540,PAYLOAD,2022-11-01 14:46:29,15.08828738,0.0001418,53.2252,64.2139,36.505,323.6039,4.0702e-05,3.6000000000000007e-06,0.0,0 STARLINK-3540,1 51719U 22016F   22305.61562256  .00000360  00000-0  40702-4 0  9995,2 51719  53.2252  64.2139 0001418  36.5050 323.6039 15.08828738 39695,6917.915,95.438,540.761,538.799,0.0
51719.0,STARLINK-3540,PAYLOAD,2022-11-02 09:51:07,15.08828188,0.0001526,53.2227,60.647,16.3794,343.7248,-9.3697e-06,-4.37e-06,0.0,0 STARLINK-3540,1 51719U 22016F   22306.41050746 -.00000437  00000-0 -93697-5 0  9999,2 51719  53.2227  60.6470 0001526  16.3794 343.7248 15.08828188 38756,6917.916,95.438,540.837,538.726,0.0
51719.0,STARLINK-3540,PAYLOAD,2022-11-02 14:37:17,15.08821773,0.0001440999999999,53.2224,59.7526,7.0991,353.0022,-6.159e-05,-1.267e-05,0.0,0 STARLINK-3540,1 51719U 22016F   22306.60923475 -.00001267  00000-0 -61590-4 0  9996,2 51719  53.2224  59.7526 0001441   7.0991 353.0022 15.08821773 39844,6917.936,95.439,540.798,538.804,0.0
51719.0,STARLINK-3540,PAYLOAD,2022-11-03 00:09:36,15.08825383,0.0002123,53.2172,57.968,60.8652,299.2553,-4.7463e-05,-1.043e-05,0.0,0 STARLINK-3540,1 51719U 22016F   22307.00667597 -.00001043  00000-0 -47463-4 0  9996,2 51719  53.2172  57.9680 0002123  60.8652 299.2553 15.08825383 39904,6917.925,95.438,541.259,538.321,0.0
51719.0,STARLINK-3540,PAYLOAD,2022-11-03 11:17:18,15.08832014,0.0001612,53.2174,55.8857,41.1592,318.9521,0.00011008,1.464e-05,0.0,0 STARLINK-3540,1 51719U 22016F   22307.47034773  .00001464  00000-0  11008-3 0  9991,2 51719  53.2174  55.8857 0001612  41.1592 318.9521 15.08832014 39976,6917.905,95.438,540.885,538.655,0.0
51719.0,STARLINK-3540,PAYLOAD,2022-11-03 17:38:50,15.08840099,0.0001729,53.218,54.6968,45.8425,314.2709,0.00016538,2.345e-05,0.0,0 STARLINK-3540,1 51719U 22016F   22307.73530289  .00002345  00000-0  16538-3 0  9995,2 51719  53.2180  54.6968 0001729  45.8425 314.2709 15.08840099 40014,6917.88,95.438,540.941,538.549,0.0
51719.0,STARLINK-3540,PAYLOAD,2022-11-04 07:57:17,15.0884715,0.0001581,53.2182,52.0204,46.6162,313.4962,0.00017293,2.466e-05,0.0,0 STARLINK-3540,1 51719U 22016F   22308.33145820  .00002466  00000-0  17293-3 0  9998,2 51719  53.2182  52.0204 0001581  46.6162 313.4962 15.08847150 39042,6917.859,95.437,540.817,538.63,0.0
51719.0,STARLINK-3540,PAYLOAD,2022-11-04 17:29:37,15.08841461,0.0001664,53.2196,50.2375,36.6685,323.4421,0.00024135,3.555e-05,0.0,0 STARLINK-3540,1 51719U 22016F   22308.72890086  .00003555  00000-0  24135-3 0  9995,2 51719  53.2196  50.2375 0001664  36.6685 323.4421 15.08841461 39104,6917.876,95.437,540.8919999999998,538.59,0.0
51719.0,STARLINK-3540,PAYLOAD,2022-11-05 09:23:29,15.08828717,0.0001972,53.2167,47.2627,49.1787,310.9376,-0.00012996,-2.355e-05,0.0,0 STARLINK-3540,1 51719U 22016F   22309.39131297 -.00002355  00000-0 -12996-3 0  9992,2 51719  53.2167  47.2627 0001972  49.1787 310.9376 15.08828717 39202,6917.915,95.438,541.144,538.4159999999998,0.0
51719.0,STARLINK-3540,PAYLOAD,2022-11-05 15:45:02,15.08825403,0.0002186,53.2164,46.0737,45.9248,314.1924,-0.00015069,-2.685e-05,0.0,0 STARLINK-3540,1 51719U 22016F   22309.65627742 -.00002685  00000-0 -15069-3 0  9996,2 51719  53.2164  46.0737 0002186  45.9248 314.1924 15.08825403 39240,6917.925,95.438,541.302,538.278,0.0
51719.0,STARLINK-3540,PAYLOAD,2022-11-05 23:41:59,15.08809708,0.0002156,53.2162,44.5874,51.1386,308.9798,0.00050554,7.759999999999999e-05,0.0,0 STARLINK-3540,1 51719U 22016F   22309.98749010  .00007760  00000-0  50554-3 0  9990,2 51719  53.2162  44.5874 0002156  51.1386 308.9798 15.08809708 40356,6917.973000000001,95.439,541.3290000000002,538.346,0.0
51719.0,STARLINK-3540,PAYLOAD,2022-11-06 10:49:40,15.08829102,0.0001783,53.2179,42.5051,42.8496,317.2635,-7.7641e-05,-1.523e-05,0.0,0 STARLINK-3540,1 51719U 22016F   22310.45116038 -.00001523  00000-0 -77641-4 0  9992,2 51719  53.2179  42.5051 0001783  42.8496 317.2635 15.08829102 40424,6917.9140000000025,95.438,541.012,538.545,0.0
51719.0,STARLINK-3540,PAYLOAD,2022-11-07 12:15:51,15.08825201,0.0001893,53.2177,37.7473,45.6511,314.4636,7.1456e-05,8.49e-06,0.0,0 STARLINK-3540,1 51719U 22016F   22311.51101092  .00000849  00000-0  71456-4 0  9990,2 51719  53.2177  37.7473 0001893  45.6511 314.4636 15.08825201 40580,6917.926,95.438,541.1,538.481,0.0
51719.0,STARLINK-3540,PAYLOAD,2022-11-08 05:45:04,15.08860952,0.000188,53.2175,34.4764,43.6056,316.5084,0.00058487,9.038e-05,0.0,0 STARLINK-3540,1 51719U 22016F   22312.23963727  .00009038  00000-0  58487-3 0  9998,2 51719  53.2175  34.4764 0001880  43.6056 316.5084 15.08860952 40697,6917.816,95.436,540.982,538.381,0.0
51719.0,STARLINK-3540,PAYLOAD,2022-11-08 08:55:50,15.08858232,0.0002379,53.2176,33.884,39.1514,320.965,0.00043002,6.566e-05,0.0,0 STARLINK-3540,1 51719U 22016F   22312.37211800  .00006566  00000-0  43002-3 0  9991,2 51719  53.2176  33.8840 0002379  39.1514 320.9650 15.08858232 39659,6917.825,95.436,541.335,538.044,0.0
